STARLINK-30182
1 57412U 23102J   26061.16668981  .00069569  00000+0  41382-2 0  9991
2 57412  42.9999 289.4418 0001141 311.4004 218.6455 15.10371116  5720
STARLINK-30881
1 58251U 23171X   26061.16668981  .01389326  00000+0  76253-1 0  9990
2 58251  43.0006 327.1216 0001795 286.4957 300.1915 15.10368271  5717
